UNKNOWN                 
1 81036U          26079.40818191  .00010435  00000+0  26937-1 0  9994
2 81036  66.0848 325.6235 2559621 142.0136 239.2363  9.32257566 30832
UNKNOWN                 
1 81052U          26077.57101249  .00005085  00000+0  13257-2 0  9994
2 81052  65.7720 147.0243 0561779 261.7341  91.9681 13.84333987613570
UNKNOWN                 
1 81069U          26079.47145692  .00003013  00000+0  39711-2 0  9995
2 81069 100.3837 351.5618 0061939 161.7597 198.5782 13.61239569529226
UNKNOWN                 
1 81078U          26067.15934509  .00000511  00000+0  16353-1 0  9996
2 81078  65.1065 123.9356 0196687 342.0725  48.5209 11.22497223504211
UNKNOWN                 
1 81111U          26079.58432097  .00010922  00000+0  21917-2 0  9999
2 81111  62.8729 287.0460 3845768   1.1076 359.5797  7.58869661279358
UNKNOWN                 
1 81123U          26076.68833645  .00001034  00000+0  10107-2 0  9997
2 81123  99.9612 168.5985 0004831 175.7039 184.4154 13.81834258619391
UNKNOWN                 
1 81134U          26078.74753356  .00000100  00000+0  33907-3 0  9995
2 81134  90.2551   6.2304 0026007 129.6806 230.6611 12.93024435475146
UNKNOWN                 
1 81219U          26075.32906505  .00000561  00000+0  50870-3 0  9995
2 81219  82.9235 295.8424 0021028 314.5962  45.3482 13.81896123620443
UNKNOWN                 
1 81228U          26079.65360101  .00005634  00000+0  16823-2 0  9996
2 81228  70.5206  56.7436 0061888 219.1405 140.5244 14.42290693640209
UNKNOWN                 
1 81254U          26079.16211327  .00003194  00000+0  20646-2 0  9993
2 81254 100.3791 159.6311 0076491 173.9698 186.2401 14.02302869626549
UNKNOWN                 
1 81279U          26079.43209550  .00000925  00000+0  36306-3 0  9995
2 81279  98.1130 135.9683 0208079  98.7990 263.6812 14.20224090476463
UNKNOWN                 
1 81301U          26079.34386898  .00000164  00000+0  23495-3 0  9992
2 81301  66.7580  62.7359 0086745 169.0172 261.8679 13.76772445619792
