CCSDS_OMM_VERS = 2.0
CREATION_DATE  = 
ORIGINATOR     = 

OBJECT_NAME    = UNKNOWN
OBJECT_ID      = 
CENTER_NAME    = EARTH
REF_FRAME      = TEME
TIME_SYSTEM    = UTC
MEAN_ELEMENT_THEORY = SGP/SGP4

EPOCH          = 2026-03-20T09:47:46.917024
MEAN_MOTION    = 9.32257566
ECCENTRICITY   = .2559621
INCLINATION    = 66.0848
RA_OF_ASC_NODE = 325.6235
ARG_OF_PERICENTER = 142.0136
MEAN_ANOMALY   = 239.2363

EPHEMERIS_TYPE = 0
CLASSIFICATION_TYPE = U
NORAD_CAT_ID   = 81036
ELEMENT_SET_NO = 999
REV_AT_EPOCH   = 3083
BSTAR          = .26937E-1
MEAN_MOTION_DOT = .10435E-3
MEAN_MOTION_DDOT = 0

CCSDS_OMM_VERS = 2.0
CREATION_DATE  = 
ORIGINATOR     = 

OBJECT_NAME    = UNKNOWN
OBJECT_ID      = 
CENTER_NAME    = EARTH
REF_FRAME      = TEME
TIME_SYSTEM    = UTC
MEAN_ELEMENT_THEORY = SGP/SGP4

EPOCH          = 2026-03-18T13:42:15.479136
MEAN_MOTION    = 13.84333987
ECCENTRICITY   = .0561779
INCLINATION    = 65.7720
RA_OF_ASC_NODE = 147.0243
ARG_OF_PERICENTER = 261.7341
MEAN_ANOMALY   = 91.9681

EPHEMERIS_TYPE = 0
CLASSIFICATION_TYPE = U
NORAD_CAT_ID   = 81052
ELEMENT_SET_NO = 999
REV_AT_EPOCH   = 61357
BSTAR          = .13257E-2
MEAN_MOTION_DOT = .5085E-4
MEAN_MOTION_DDOT = 0

CCSDS_OMM_VERS = 2.0
CREATION_DATE  = 
ORIGINATOR     = 

OBJECT_NAME    = UNKNOWN
OBJECT_ID      = 
CENTER_NAME    = EARTH
REF_FRAME      = TEME
TIME_SYSTEM    = UTC
MEAN_ELEMENT_THEORY = SGP/SGP4

EPOCH          = 2026-03-20T11:18:53.877888
MEAN_MOTION    = 13.61239569
ECCENTRICITY   = .0061939
INCLINATION    = 100.3837
RA_OF_ASC_NODE = 351.5618
ARG_OF_PERICENTER = 161.7597
MEAN_ANOMALY   = 198.5782

EPHEMERIS_TYPE = 0
CLASSIFICATION_TYPE = U
NORAD_CAT_ID   = 81069
ELEMENT_SET_NO = 999
REV_AT_EPOCH   = 52922
BSTAR          = .39711E-2
MEAN_MOTION_DOT = .3013E-4
MEAN_MOTION_DDOT = 0

CCSDS_OMM_VERS = 2.0
CREATION_DATE  = 
ORIGINATOR     = 

OBJECT_NAME    = UNKNOWN
OBJECT_ID      = 
CENTER_NAME    = EARTH
REF_FRAME      = TEME
TIME_SYSTEM    = UTC
MEAN_ELEMENT_THEORY = SGP/SGP4

EPOCH          = 2026-03-08T03:49:27.415776
MEAN_MOTION    = 11.22497223
ECCENTRICITY   = .0196687
INCLINATION    = 65.1065
RA_OF_ASC_NODE = 123.9356
ARG_OF_PERICENTER = 342.0725
MEAN_ANOMALY   = 48.5209

EPHEMERIS_TYPE = 0
CLASSIFICATION_TYPE = U
NORAD_CAT_ID   = 81078
ELEMENT_SET_NO = 999
REV_AT_EPOCH   = 50421
BSTAR          = .16353E-1
MEAN_MOTION_DOT = .511E-5
MEAN_MOTION_DDOT = 0

CCSDS_OMM_VERS = 2.0
CREATION_DATE  = 
ORIGINATOR     = 

OBJECT_NAME    = UNKNOWN
OBJECT_ID      = 
CENTER_NAME    = EARTH
REF_FRAME      = TEME
TIME_SYSTEM    = UTC
MEAN_ELEMENT_THEORY = SGP/SGP4

EPOCH          = 2026-03-20T14:01:25.331808
MEAN_MOTION    = 7.58869661
ECCENTRICITY   = .3845768
INCLINATION    = 62.8729
RA_OF_ASC_NODE = 287.0460
ARG_OF_PERICENTER = 1.1076
MEAN_ANOMALY   = 359.5797

EPHEMERIS_TYPE = 0
CLASSIFICATION_TYPE = U
NORAD_CAT_ID   = 81111
ELEMENT_SET_NO = 999
REV_AT_EPOCH   = 27935
BSTAR          = .21917E-2
MEAN_MOTION_DOT = .10922E-3
MEAN_MOTION_DDOT = 0

CCSDS_OMM_VERS = 2.0
CREATION_DATE  = 
ORIGINATOR     = 

OBJECT_NAME    = UNKNOWN
OBJECT_ID      = 
CENTER_NAME    = EARTH
REF_FRAME      = TEME
TIME_SYSTEM    = UTC
MEAN_ELEMENT_THEORY = SGP/SGP4

EPOCH          = 2026-03-17T16:31:12.269280
MEAN_MOTION    = 13.81834258
ECCENTRICITY   = .0004831
INCLINATION    = 99.9612
RA_OF_ASC_NODE = 168.5985
ARG_OF_PERICENTER = 175.7039
MEAN_ANOMALY   = 184.4154

EPHEMERIS_TYPE = 0
CLASSIFICATION_TYPE = U
NORAD_CAT_ID   = 81123
ELEMENT_SET_NO = 999
REV_AT_EPOCH   = 61939
BSTAR          = .10107E-2
MEAN_MOTION_DOT = .1034E-4
MEAN_MOTION_DDOT = 0

CCSDS_OMM_VERS = 2.0
CREATION_DATE  = 
ORIGINATOR     = 

OBJECT_NAME    = UNKNOWN
OBJECT_ID      = 
CENTER_NAME    = EARTH
REF_FRAME      = TEME
TIME_SYSTEM    = UTC
MEAN_ELEMENT_THEORY = SGP/SGP4

EPOCH          = 2026-03-19T17:56:26.899584
MEAN_MOTION    = 12.93024435
ECCENTRICITY   = .0026007
INCLINATION    = 90.2551
RA_OF_ASC_NODE = 6.2304
ARG_OF_PERICENTER = 129.6806
MEAN_ANOMALY   = 230.6611

EPHEMERIS_TYPE = 0
CLASSIFICATION_TYPE = U
NORAD_CAT_ID   = 81134
ELEMENT_SET_NO = 999
REV_AT_EPOCH   = 47514
BSTAR          = .33907E-3
MEAN_MOTION_DOT = .1E-5
MEAN_MOTION_DDOT = 0

CCSDS_OMM_VERS = 2.0
CREATION_DATE  = 
ORIGINATOR     = 

OBJECT_NAME    = UNKNOWN
OBJECT_ID      = 
CENTER_NAME    = EARTH
REF_FRAME      = TEME
TIME_SYSTEM    = UTC
MEAN_ELEMENT_THEORY = SGP/SGP4

EPOCH          = 2026-03-16T07:53:51.220320
MEAN_MOTION    = 13.81896123
ECCENTRICITY   = .0021028
INCLINATION    = 82.9235
RA_OF_ASC_NODE = 295.8424
ARG_OF_PERICENTER = 314.5962
MEAN_ANOMALY   = 45.3482

EPHEMERIS_TYPE = 0
CLASSIFICATION_TYPE = U
NORAD_CAT_ID   = 81219
ELEMENT_SET_NO = 999
REV_AT_EPOCH   = 62044
BSTAR          = .5087E-3
MEAN_MOTION_DOT = .561E-5
MEAN_MOTION_DDOT = 0

CCSDS_OMM_VERS = 2.0
CREATION_DATE  = 
ORIGINATOR     = 

OBJECT_NAME    = UNKNOWN
OBJECT_ID      = 
CENTER_NAME    = EARTH
REF_FRAME      = TEME
TIME_SYSTEM    = UTC
MEAN_ELEMENT_THEORY = SGP/SGP4

EPOCH          = 2026-03-20T15:41:11.127264
MEAN_MOTION    = 14.42290693
ECCENTRICITY   = .0061888
INCLINATION    = 70.5206
RA_OF_ASC_NODE = 56.7436
ARG_OF_PERICENTER = 219.1405
MEAN_ANOMALY   = 140.5244

EPHEMERIS_TYPE = 0
CLASSIFICATION_TYPE = U
NORAD_CAT_ID   = 81228
ELEMENT_SET_NO = 999
REV_AT_EPOCH   = 64020
BSTAR          = .16823E-2
MEAN_MOTION_DOT = .5634E-4
MEAN_MOTION_DDOT = 0

CCSDS_OMM_VERS = 2.0
CREATION_DATE  = 
ORIGINATOR     = 

OBJECT_NAME    = UNKNOWN
OBJECT_ID      = 
CENTER_NAME    = EARTH
REF_FRAME      = TEME
TIME_SYSTEM    = UTC
MEAN_ELEMENT_THEORY = SGP/SGP4

EPOCH          = 2026-03-20T03:53:26.586528
MEAN_MOTION    = 14.02302869
ECCENTRICITY   = .0076491
INCLINATION    = 100.3791
RA_OF_ASC_NODE = 159.6311
ARG_OF_PERICENTER = 173.9698
MEAN_ANOMALY   = 186.2401

EPHEMERIS_TYPE = 0
CLASSIFICATION_TYPE = U
NORAD_CAT_ID   = 81254
ELEMENT_SET_NO = 999
REV_AT_EPOCH   = 62654
BSTAR          = .20646E-2
MEAN_MOTION_DOT = .3194E-4
MEAN_MOTION_DDOT = 0

CCSDS_OMM_VERS = 2.0
CREATION_DATE  = 
ORIGINATOR     = 

OBJECT_NAME    = UNKNOWN
OBJECT_ID      = 
CENTER_NAME    = EARTH
REF_FRAME      = TEME
TIME_SYSTEM    = UTC
MEAN_ELEMENT_THEORY = SGP/SGP4

EPOCH          = 2026-03-20T10:22:13.051200
MEAN_MOTION    = 14.20224090
ECCENTRICITY   = .0208079
INCLINATION    = 98.1130
RA_OF_ASC_NODE = 135.9683
ARG_OF_PERICENTER = 98.7990
MEAN_ANOMALY   = 263.6812

EPHEMERIS_TYPE = 0
CLASSIFICATION_TYPE = U
NORAD_CAT_ID   = 81279
ELEMENT_SET_NO = 999
REV_AT_EPOCH   = 47646
BSTAR          = .36306E-3
MEAN_MOTION_DOT = .925E-5
MEAN_MOTION_DDOT = 0

CCSDS_OMM_VERS = 2.0
CREATION_DATE  = 
ORIGINATOR     = 

OBJECT_NAME    = UNKNOWN
OBJECT_ID      = 
CENTER_NAME    = EARTH
REF_FRAME      = TEME
TIME_SYSTEM    = UTC
MEAN_ELEMENT_THEORY = SGP/SGP4

EPOCH          = 2026-03-20T08:15:10.279872
MEAN_MOTION    = 13.76772445
ECCENTRICITY   = .0086745
INCLINATION    = 66.7580
RA_OF_ASC_NODE = 62.7359
ARG_OF_PERICENTER = 169.0172
MEAN_ANOMALY   = 261.8679

EPHEMERIS_TYPE = 0
CLASSIFICATION_TYPE = U
NORAD_CAT_ID   = 81301
ELEMENT_SET_NO = 999
REV_AT_EPOCH   = 61979
BSTAR          = .23495E-3
MEAN_MOTION_DOT = .164E-5
MEAN_MOTION_DDOT = 0

